#dP2024 12  2  0  0  0.00000000      96 __u+U IGS20 EXT  IAC
## 2343  86400.00000000   900.00000000 60646 0.0000000000000
+   52   G02G03G04G05G06G07G08G09G10G11G12G13G14G15G16G17G18
+        G19G20G21G22G23G24G25G26G27G28G29G30G31G32R01R02R03
+        R04R05R07R08R09R11R12R14R15R16R17R18R19R20R21R22R24
+        R26  0  0  0  0  0  0  0  0  0  0  0  0  0  0  0  0
+          0  0  0  0  0  0  0  0  0  0  0  0  0  0  0  0  0
++         7  8  8  8  7  7  8  8  9  8  7  7  6  6  7  7  8
++         8  7  8  6  9  8  7  7  7  7  8  6  7  6 10  8  6
++         7  8  7  7  8  8  7  8  8  8  8  8  8  8  7  9  7
++         7  0  0  0  0  0  0  0  0  0  0  0  0  0  0  0  0
++         0  0  0  0  0  0  0  0  0  0  0  0  0  0  0  0  0
%c M  cc GPS ccc cccc cccc cccc cccc ccccc ccccc ccccc ccccc
%c cc cc ccc ccc cccc cccc cccc cccc ccccc ccccc ccccc ccccc
%f  0.0000000  0.000000000  0.00000000000  0.000000000000000
%f  0.0000000  0.000000000  0.00000000000  0.000000000000000
%i    0    0    0    0      0      0      0      0         0
%i    0    0    0    0      0      0      0      0         0
/* IAC                                ULTRA-RAPID PREDICTION
/* S/V CLOCKS ARE ALIGNED TO GNSS TIME                      
/* G:C1WC2W R:C1PC2P E:C1XC5X C:C2IC6I J:C1CC2S             
/* PCV:IGS20_2317 OL/AL:FES2004  NONE     YN ORB:CoN CLK:CoN
*  2024 12 02  7 30  0.00000000
PG02   1640.981471  14935.985928 -21405.584555   -301.497993
PG03  10959.477188  22251.002548  -9813.742375    614.676331
PG04   1556.430318  22734.323632  13531.885451    489.122556
PG05   2174.944684 -17147.410945  19971.744493   -194.761110
PG06  26047.692339  -5467.366339    812.909117    -12.714102
PG07  18383.298660   9084.248421  17652.146715    -17.206377
PG08  -5425.813442  25624.872354  -2649.295292    428.439964
PG09   9101.964002  15976.596656  19047.949560    469.301021
PG10 -19680.932859  -5321.924397 -16981.060501   -218.069990
PG11  19508.337345 -12312.102100  13146.500025   -751.955996
PG12  -6159.229322 -22598.097050 -12857.631323   -555.781907
PG13  13707.999244 -22302.493420   3413.595193    688.372367
PG14  20828.348855   8591.639205 -14200.679773    551.800999
PG15   1655.332301 -26259.997640  -3496.085013    234.651616
PG16  -8571.468008  13094.025675  21045.584506   -113.691265
PG17  15873.274947   -845.117106 -20896.492300    536.041864
PG18 -20245.010589  -7138.015720  15819.429037   -660.585966
PG19  17526.564084 -10559.930683 -16832.513725    569.355606
PG20  12558.233292  -9420.006164  21490.675176    368.242822
PG21  -4852.853447  16055.385741 -19917.434606     96.024783
PG22  17735.416704   1322.686456 -19234.806569    -83.583634
PG23 -20418.988919 -16196.728340  -5681.117024    375.137045
PG24    164.760151 -16512.257449 -21212.114877   -476.572948
PG25 -17231.967712 -20359.219780  -1690.773244    498.523810
PG26 -17065.812072   4212.094934  19834.384441      6.072753
PG27 -12542.607086  21770.173820   7600.628638    -34.476939
PG28 -26020.684594   5110.287178  -1572.219479   -496.294547
PG29  -7286.370076 -16781.736429  19167.954245   -559.272044
PG30  25442.276114    847.666079   8197.598894   -270.000915
PG31 -23089.909381  10335.349576   8433.077148   -220.740619
PG32 -16251.191904   4790.393681 -20180.420157   -565.399219
PR01  10098.985353  13037.403792  19460.906611    106.340972
PR02  10382.548563  -5415.323660  22712.822055    -39.317340
PR03   5232.361219 -21409.981648  12945.984392    112.449741
PR04  -2289.983289 -25171.297208  -3504.491137    266.619552
PR05  -8719.684584 -15688.652330 -18130.847917    141.565171
PR07  -5047.809991  21595.565070 -12510.624767     96.119347
PR08   2732.658396  25045.956827   3898.096279     -6.191349
PR09 -20940.043717  -2206.337334  14352.729369    223.838442
PR11   8099.566248  14501.133825  19372.136643      5.665636
PR12  21833.845192  12877.699114   2802.915359     47.903599
PR14   7921.835904  -8375.055084 -22749.179555     27.331333
PR15  -9649.402559 -14942.967889 -18266.845532     73.543862
PR16 -21822.122318 -12838.479021  -2950.248719     31.279556
PR17  17068.398345 -16043.715337  10059.701755    144.933065
PR18   3509.073294 -13469.386801  21410.036584    174.707900
PR19 -10414.439901  -5763.247344  22569.257213   -300.476634
PR20 -22570.946343   8207.515483   8556.748300   -122.654658
PR21 -17948.784720  15731.353694  -9034.246096   -156.118796
PR22  -2361.857949  13219.993620 -21652.364656    -28.248805
PR24  22291.754365  -9477.554842  -7940.629293    -82.415952
PR26   2018.435033  25359.142749   2000.955525   -133.114591
*  2024 12 02  7 45  0.00000000
PG02   -772.384711  15677.904907 -20896.527833   -301.490130
PG03  10007.038914  21447.761456 -12328.736060    614.684689
PG04    912.692816  24011.366547  11162.651667    489.128239
PG05   3949.104828 -15564.360258  20968.288915   -194.762174
PG06  26004.969979  -5288.662842  -2090.047165    -12.740646
PG07  16468.896230   9670.231856  19170.940918    -17.204905
PG08  -5766.916863  25671.138765    207.776496    428.448578
PG09   8419.098070  17980.047633  17516.400459    469.316024
PG10 -20871.177049  -6742.956457 -14993.470628   -218.083444
PG11  20885.452591 -12369.257794  10746.180090   -751.956806
PG12  -5026.942567 -21520.810334 -15055.172380   -555.784077
PG13  13681.790749 -21674.718047   6235.059095    688.373733
PG14  21672.489599   9851.091303 -11971.256390    551.808054
PG15   2006.255604 -26402.221253   -692.500273    234.655718
PG16 -10184.452385  11167.245811  21467.030150   -113.682623
PG17  15062.285229   1526.288817 -21423.210772    536.028073
PG18 -18417.459897  -7674.085641  17675.291602   -660.585896
PG19  16910.288061  -8637.780244 -18527.460136    569.359495
PG20  14467.333559  -7948.356119  20861.130758    368.242533
PG21  -7097.305785  16646.974890 -18647.402536     96.023905
PG22  18983.702671   3142.891078 -17779.624232    -83.586003
PG23 -20642.461848 -16664.293007  -2851.193005    375.144084
PG24   2374.417111 -17185.909629 -20480.922038   -476.570517
PG25 -16826.260681 -20321.298835  -4479.953109    498.523463
PG26 -18657.270116   2633.822979  18684.787666      6.060490
PG27 -12513.439089  20666.365875  10221.609707    -34.476696
PG28 -25759.706047   4776.750073  -4400.903264   -496.304612
PG29  -6415.137564 -18713.312658  17621.655311   -559.269312
PG30  24478.227223   1363.568676  10699.532465   -269.993712
PG31 -23955.942802  10281.215707   5769.017096   -220.739992
PG32 -15678.318966   2449.846739 -21044.234117   -565.394017
PR01  10418.191682  15300.947969  17551.575933    106.342154
PR02  10525.738167  -2599.751808  23134.333070    -39.317158
PR03   5219.468702 -19660.062379  15481.149550    112.450371
PR04  -2488.722302 -25397.285746   -287.689895    266.621171
PR05  -8965.155019 -17783.155601 -15950.164425    141.565671
PR07  -5037.319078  19877.982192 -15092.668805     96.120028
PR08   2915.909986  25310.025718    689.439129     -6.191290
PR09 -22439.543402  -2793.817473  11736.983418    223.840339
PR11   5884.170892  13375.110142  20919.064115      5.664839
PR12  21404.984135  12528.244670   5950.106728     47.903991
PR14  10439.356011  -7222.636272 -22121.353483     27.331451
PR15  -7547.446675 -13856.109741 -20027.277484     73.543553
PR16 -21380.261616 -12464.018569  -6104.634164     31.279915
PR17  17852.114993 -16771.510738   7056.553529    144.936061
PR18   5595.755366 -14934.821767  19946.375553    174.709526
PR19  -7979.020272  -7191.137010  23144.137636   -300.477779
PR20 -21411.004151   7735.450940  11485.366537   -122.655087
PR21 -18622.005671  16396.886778  -5975.353127   -156.121609
PR22  -4542.783833  14636.175618 -20356.124595    -28.259671
PR24  21249.445337  -8939.814560 -10872.993352    -82.417227
PR26   2191.325851  25392.040781  -1219.755080   -133.114263
EOF
